HAWK-11B                
1 62379U 24247C   26068.44730104  .00009093  00000+0  32842-3 0  9993
2 62379  45.0161 115.7610 0004690 333.0326  27.0314 15.28847070 67738
STARLINK-36425          
1 67467U 26008Y   26068.39173285  .00027535  00000+0  10060-2 0  9996
2 67467  42.9947 207.1682 0001864 144.4244 215.6732 15.27592602  9526
